[{"OBJECT_NAME":"GAOFEN-9 05","OBJECT_ID":"2020-058A","EPOCH":"2026-03-10T00:01:50.876256","MEAN_MOTION":15.30293976,"ECCENTRICITY":0.0010522,"INCLINATION":97.2228,"RA_OF_ASC_NODE":111.963,"ARG_OF_PERICENTER":91.0204,"MEAN_ANOMALY":269.2242,"EPHEMERIS_TYPE":0,"CLASSIFICATION_TYPE":"U","NORAD_CAT_ID":46232,"ELEMENT_SET_NO":999,"REV_AT_EPOCH":30843,"BSTAR":0.00025120304,"MEAN_MOTION_DOT":7.299e-5,"MEAN_MOTION_DDOT":0},{"OBJECT_NAME":"STARLINK-31760","OBJECT_ID":"2024-098M","EPOCH":"2026-03-08T23:23:57.732000","MEAN_MOTION":15.27590493,"ECCENTRICITY":0.00015473,"INCLINATION":43.0007,"RA_OF_ASC_NODE":282.3086,"ARG_OF_PERICENTER":268.2313,"MEAN_ANOMALY":91.8362,"EPHEMERIS_TYPE":0,"CLASSIFICATION_TYPE":"U","NORAD_CAT_ID":59869,"ELEMENT_SET_NO":999,"REV_AT_EPOCH":10173,"BSTAR":-0.00012118674,"MEAN_MOTION_DOT":-3.597e-5,"MEAN_MOTION_DDOT":0}]
